{"type": "FeatureCollection", "features": [ {"type": "Feature", "properties": {"norad_id": 35703, "name": "COSMOS 2251 DEB", "group": "cosmos-2251-debris", "lat": -47.59200060289514, "lon": -125.82653079219628, "alt_km": 628.8685450693165, "timestamp": "2025-12-16T03:53:27.451824+00:00", "meta": {"OBJECT_NAME": "COSMOS 2251 DEB", "OBJECT_ID": "1993-036APY", "EPOCH": "2025-12-13T10:25:41.808288", "MEAN_MOTION": 14.90369832, "ECCENTRICITY": 0.0064635, "INCLINATION": 74.0427, "RA_OF_ASC_NODE": 41.374, "ARG_OF_PERICENTER": 111.0276, "MEAN_ANOMALY": 249.7836, "EPHEMERIS_TYPE": 0, "CLASSIFICATION_TYPE": "U", "NORAD_CAT_ID": 35703, "ELEMENT_SET_NO": 999, "REV_AT_EPOCH": 66626, "BSTAR": 0.0011888649, "MEAN_MOTION_DOT": 0.00012023, "MEAN_MOTION_DDOT": 0}, "tle": {"line1": "1 35703U 93036APY 25347.43451167  .00012023  00000+0  11889-2 0  9997", "line2": "2 35703  74.0427  41.3740 0064635 111.0276 249.7836 14.90369832666265"}}, "geometry": {"type": "Point", "coordinates": [-125.82653079219628, -47.59200060289514]}}, {"type": "Feature", "properties": {"norad_id": 35705, "name": "COSMOS 2251 DEB", "group": "cosmos-2251-debris", "lat": 28.454925079842777, "lon": -59.52494032258956, "alt_km": 644.8853306834844, "timestamp": "2025-12-16T03:53:27.451834+00:00", "meta": {"OBJECT_NAME": "COSMOS 2251 DEB", "OBJECT_ID": "1993-036AQA", "EPOCH": "2025-12-13T16:30:25.570944", "MEAN_MOTION": 14.72285684, "ECCENTRICITY": 0.00330748, "INCLINATION": 74.2763, "RA_OF_ASC_NODE": 133.9994, "ARG_OF_PERICENTER": 83.0917, "MEAN_ANOMALY": 277.4017, "EPHEMERIS_TYPE": 0, "CLASSIFICATION_TYPE": "U", "NORAD_CAT_ID": 35705, "ELEMENT_SET_NO": 999, "REV_AT_EPOCH": 85940, "BSTAR": 0.003032246, "MEAN_MOTION_DOT": 0.00019351, "MEAN_MOTION_DDOT": 0}, "tle": {"line1": "1 35705U 93036AQA 25347.68779596  .00019351  00000+0  30322-2 0  9999", "line2": "2 35705  74.2763 133.9994 0033074  83.0917 277.4017 14.72285684859405"}}, "geometry": {"type": "Point", "coordinates": [-59.52494032258956, 28.454925079842777]}}, {"type": "Feature", "properties": {"norad_id": 35706, "name": "COSMOS 2251 DEB", "group": "cosmos-2251-debris", "lat": -3.928595419470179, "lon": -121.70788871718058, "alt_km": 955.2800961591001, "timestamp": "2025-12-16T03:53:27.451844+00:00", "meta": {"OBJECT_NAME": "COSMOS 2251 DEB", "OBJECT_ID": "1993-036AQB", "EPOCH": "2025-12-14T21:08:56.537088", "MEAN_MOTION": 13.65929011, "ECCENTRICITY": 0.03404676, "INCLINATION": 73.8893, "RA_OF_ASC_NODE": 59.2702, "ARG_OF_PERICENTER": 108.6738, "MEAN_ANOMALY": 255.1655, "EPHEMERIS_TYPE": 0, "CLASSIFICATION_TYPE": "U", "NORAD_CAT_ID": 35706, "ELEMENT_SET_NO": 999, "REV_AT_EPOCH": 62091, "BSTAR": 0.00069767153, "MEAN_MOTION_DOT": 8.33e-06, "MEAN_MOTION_DDOT": 0}, "tle": {"line1": "1 35706U 93036AQB 25348.88120992  .00000833  00000+0  69767-3 0  9994", "line2": "2 35706  73.8893  59.2702 0340467 108.6738 255.1655 13.65929011620917"}}, "geometry": {"type": "Point", "coordinates": [-121.70788871718058, -3.928595419470179]}}, {"type": "Feature", "properties": {"norad_id": 35711, "name": "COSMOS 2251 DEB", "group": "cosmos-2251-debris", "lat": 18.761274852166345, "lon": -140.53038879544002, "alt_km": 655.4756104453008, "timestamp": "2025-12-16T03:53:27.451854+00:00", "meta": {"OBJECT_NAME": "COSMOS 2251 DEB", "OBJECT_ID": "1993-036AQG", "EPOCH": "2025-12-14T09:09:24.990336", "MEAN_MOTION": 14.63807482, "ECCENTRICITY": 0.00854419, "INCLINATION": 74.0452, "RA_OF_ASC_NODE": 217.3086, "ARG_OF_PERICENTER": 317.9092, "MEAN_ANOMALY": 41.5532, "EPHEMERIS_TYPE": 0, "CLASSIFICATION_TYPE": "U", "NORAD_CAT_ID": 35711, "ELEMENT_SET_NO": 999, "REV_AT_EPOCH": 87795, "BSTAR": 0.00027048668, "MEAN_MOTION_DOT": 1.455e-05, "MEAN_MOTION_DDOT": 0}, "tle": {"line1": "1 35711U 93036AQG 25348.38153924  .00001455  00000+0  27049-3 0  9994", "line2": "2 35711  74.0452 217.3086 0085441 317.9092  41.5532 14.63807482877950"}}, "geometry": {"type": "Point", "coordinates": [-140.53038879544002, 18.761274852166345]}}, {"type": "Feature", "properties": {"norad_id": 35716, "name": "COSMOS 2251 DEB", "group": "cosmos-2251-debris", "lat": 50.066197611167226, "lon": -152.28927584131742, "alt_km": 631.0058611774139, "timestamp": "2025-12-16T03:53:27.451864+00:00", "meta": {"OBJECT_NAME": "COSMOS 2251 DEB", "OBJECT_ID": "1993-036AQM", "EPOCH": "2025-12-14T20:28:26.855040", "MEAN_MOTION": 14.6008889, "ECCENTRICITY": 0.00888416, "INCLINATION": 73.9921, "RA_OF_ASC_NODE": 190.159, "ARG_OF_PERICENTER": 30.6001, "MEAN_ANOMALY": 344.0625, "EPHEMERIS_TYPE": 0, "CLASSIFICATION_TYPE": "U", "NORAD_CAT_ID": 35716, "ELEMENT_SET_NO": 999, "REV_AT_EPOCH": 87658, "BSTAR": 0.00010459192, "MEAN_MOTION_DOT": 4.99e-06, "MEAN_MOTION_DDOT": 0}, "tle": {"line1": "1 35716U 93036AQM 25348.85308860  .00000499  00000+0  10459-3 0  9996", "line2": "2 35716  73.9921 190.1590 0088841  30.6001 344.0625 14.60088890876581"}}, "geometry": {"type": "Point", "coordinates": [-152.28927584131742, 50.066197611167226]}}, {"type": "Feature", "properties": {"norad_id": 35717, "name": "COSMOS 2251 DEB", "group": "cosmos-2251-debris", "lat": -73.2254906303622, "lon": 140.873429851915, "alt_km": 819.748584738586, "timestamp": "2025-12-16T03:53:27.451875+00:00", "meta": {"OBJECT_NAME": "COSMOS 2251 DEB", "OBJECT_ID": "1993-036AQN", "EPOCH": "2025-12-15T08:15:22.197888", "MEAN_MOTION": 14.38511907, "ECCENTRICITY": 0.00769248, "INCLINATION": 74.1605, "RA_OF_ASC_NODE": 212.7319, "ARG_OF_PERICENTER": 71.4819, "MEAN_ANOMALY": 289.4675, "EPHEMERIS_TYPE": 0, "CLASSIFICATION_TYPE": "U", "NORAD_CAT_ID": 35717, "ELEMENT_SET_NO": 999, "REV_AT_EPOCH": 74137, "BSTAR": 0.00077687161, "MEAN_MOTION_DOT": 2.433e-05, "MEAN_MOTION_DDOT": 0}, "tle": {"line1": "1 35717U 93036AQN 25349.34400692  .00002433  00000+0  77687-3 0  9994", "line2": "2 35717  74.1605 212.7319 0076924  71.4819 289.4675 14.38511907741373"}}, "geometry": {"type": "Point", "coordinates": [140.873429851915, -73.2254906303622]}}, {"type": "Feature", "properties": {"norad_id": 35718, "name": "COSMOS 2251 DEB", "group": "cosmos-2251-debris", "lat": 29.559225600173374, "lon": 132.69421281982704, "alt_km": 669.1499462727916, "timestamp": "2025-12-16T03:53:27.451885+00:00", "meta": {"OBJECT_NAME": "COSMOS 2251 DEB", "OBJECT_ID": "1993-036AQP", "EPOCH": "2025-12-14T15:47:09.025440", "MEAN_MOTION": 14.68701356, "ECCENTRICITY": 0.00106898, "INCLINATION": 74.0305, "RA_OF_ASC_NODE": 126.2581, "ARG_OF_PERICENTER": 174.8201, "MEAN_ANOMALY": 185.3082, "EPHEMERIS_TYPE": 0, "CLASSIFICATION_TYPE": "U", "NORAD_CAT_ID": 35718, "ELEMENT_SET_NO": 999, "REV_AT_EPOCH": 65868, "BSTAR": 0.0014363225, "MEAN_MOTION_DOT": 8.35e-05, "MEAN_MOTION_DDOT": 0}, "tle": {"line1": "1 35718U 93036AQP 25348.65774335  .00008350  00000+0  14363-2 0  9991", "line2": "2 35718  74.0305 126.2581 0010689 174.8201 185.3082 14.68701356658688"}}, "geometry": {"type": "Point", "coordinates": [132.69421281982704, 29.559225600173374]}}, {"type": "Feature", "properties": {"norad_id": 35721, "name": "COSMOS 2251 DEB", "group": "cosmos-2251-debris", "lat": -9.094993721424323, "lon": 168.79903675376025, "alt_km": 692.9786961559976, "timestamp": "2025-12-16T03:53:27.451895+00:00", "meta": {"OBJECT_NAME": "COSMOS 2251 DEB", "OBJECT_ID": "1993-036AQS", "EPOCH": "2025-12-09T19:36:39.465216", "MEAN_MOTION": 14.34317214, "ECCENTRICITY": 0.01465875, "INCLINATION": 73.9489, "RA_OF_ASC_NODE": 183.1196, "ARG_OF_PERICENTER": 330.1589, "MEAN_ANOMALY": 29.126, "EPHEMERIS_TYPE": 0, "CLASSIFICATION_TYPE": "U", "NORAD_CAT_ID": 35721, "ELEMENT_SET_NO": 999, "REV_AT_EPOCH": 57747, "BSTAR": 0.0018396061, "MEAN_MOTION_DOT": 5.808e-05, "MEAN_MOTION_DDOT": 0}, "tle": {"line1": "1 35721U 93036AQS 25343.81712344  .00005808  00000+0  18396-2 0  9995", "line2": "2 35721  73.9489 183.1196 0146587 330.1589  29.1260 14.34317214577479"}}, "geometry": {"type": "Point", "coordinates": [168.79903675376025, -9.094993721424323]}}, {"type": "Feature", "properties": {"norad_id": 35724, "name": "COSMOS 2251 DEB", "group": "cosmos-2251-debris", "lat": -43.40199201083026, "lon": 131.87734833926177, "alt_km": 735.5074975386115, "timestamp": "2025-12-16T03:53:27.451906+00:00", "meta": {"OBJECT_NAME": "COSMOS 2251 DEB", "OBJECT_ID": "1993-036AQV", "EPOCH": "2025-12-14T14:38:29.128704", "MEAN_MOTION": 14.58202811, "ECCENTRICITY": 0.00589744, "INCLINATION": 74.0327, "RA_OF_ASC_NODE": 299.1196, "ARG_OF_PERICENTER": 92.2459, "MEAN_ANOMALY": 268.546, "EPHEMERIS_TYPE": 0, "CLASSIFICATION_TYPE": "U", "NORAD_CAT_ID": 35724, "ELEMENT_SET_NO": 999, "REV_AT_EPOCH": 87556, "BSTAR": 0.00032335502, "MEAN_MOTION_DOT": 1.498e-05, "MEAN_MOTION_DDOT": 0}, "tle": {"line1": "1 35724U 93036AQV 25348.61005936  .00001498  00000+0  32336-3 0  9995", "line2": "2 35724  74.0327 299.1196 0058974  92.2459 268.5460 14.58202811875561"}}, "geometry": {"type": "Point", "coordinates": [131.87734833926177, -43.40199201083026]}}, {"type": "Feature", "properties": {"norad_id": 35759, "name": "COSMOS 2251 DEB", "group": "cosmos-2251-debris", "lat": 14.563336462143296, "lon": 25.200992460913998, "alt_km": 729.7150654889565, "timestamp": "2025-12-16T03:53:27.451915+00:00", "meta": {"OBJECT_NAME": "COSMOS 2251 DEB", "OBJECT_ID": "1993-036ARD", "EPOCH": "2025-12-15T07:28:12.140832", "MEAN_MOTION": 14.6490066, "ECCENTRICITY": 0.00771314, "INCLINATION": 74.0372, "RA_OF_ASC_NODE": 211.1013, "ARG_OF_PERICENTER": 328.7033, "MEAN_ANOMALY": 30.9554, "EPHEMERIS_TYPE": 0, "CLASSIFICATION_TYPE": "U", "NORAD_CAT_ID": 35759, "ELEMENT_SET_NO": 999, "REV_AT_EPOCH": 66173, "BSTAR": 0.00024007892, "MEAN_MOTION_DOT": 1.307e-05, "MEAN_MOTION_DDOT": 0}, "tle": {"line1": "1 35759U 93036ARD 25349.31125163  .00001307  00000+0  24008-3 0  9992", "line2": "2 35759  74.0372 211.1013 0077131 328.7033  30.9554 14.64900660661733"}}, "geometry": {"type": "Point", "coordinates": [25.200992460913998, 14.563336462143296]}}]}